[{"OBJECT_NAME":"GPS BIIF-6  (PRN 06)","OBJECT_ID":"2014-026A","EPOCH":"2026-06-25T22:28:21.537696","MEAN_MOTION":2.00560487,"ECCENTRICITY":0.0038119,"INCLINATION":56.4938,"RA_OF_ASC_NODE":331.1769,"ARG_OF_PERICENTER":326.3471,"MEAN_ANOMALY":33.4038,"EPHEMERIS_TYPE":0,"CLASSIFICATION_TYPE":"U","NORAD_CAT_ID":39741,"ELEMENT_SET_NO":999,"REV_AT_EPOCH":8871,"BSTAR":0,"MEAN_MOTION_DOT":-1.04e-6,"MEAN_MOTION_DDOT":0},{"OBJECT_NAME":"COSMOS 2500 (755)","OBJECT_ID":"2014-032A","EPOCH":"2026-06-26T10:10:07.210848","MEAN_MOTION":2.13105965,"ECCENTRICITY":0.0007725,"INCLINATION":65.2268,"RA_OF_ASC_NODE":313.3678,"ARG_OF_PERICENTER":185.8018,"MEAN_ANOMALY":174.1783,"EPHEMERIS_TYPE":0,"CLASSIFICATION_TYPE":"U","NORAD_CAT_ID":40001,"ELEMENT_SET_NO":999,"REV_AT_EPOCH":9365,"BSTAR":0,"MEAN_MOTION_DOT":-8.4e-7,"MEAN_MOTION_DDOT":0},{"OBJECT_NAME":"GPS BIIF-7  (PRN 09)","OBJECT_ID":"2014-045A","EPOCH":"2026-06-26T00:40:32.827008","MEAN_MOTION":2.00559107,"ECCENTRICITY":0.0033686,"INCLINATION":55.3587,"RA_OF_ASC_NODE":88.1127,"ARG_OF_PERICENTER":118.275,"MEAN_ANOMALY":242.0678,"EPHEMERIS_TYPE":0,"CLASSIFICATION_TYPE":"U","NORAD_CAT_ID":40105,"ELEMENT_SET_NO":999,"REV_AT_EPOCH":8625,"BSTAR":0,"MEAN_MOTION_DOT":-6.8e-7,"MEAN_MOTION_DDOT":0},{"OBJECT_NAME":"GSAT0201 (GALILEO 5)","OBJECT_ID":"2014-050A","EPOCH":"2026-06-26T00:58:35.922720","MEAN_MOTION":1.85520188,"ECCENTRICITY":0.1675889,"INCLINATION":48.8656,"RA_OF_ASC_NODE":273.0732,"ARG_OF_PERICENTER":179.7342,"MEAN_ANOMALY":180.422,"EPHEMERIS_TYPE":0,"CLASSIFICATION_TYPE":"U","NORAD_CAT_ID":40128,"ELEMENT_SET_NO":999,"REV_AT_EPOCH":7848,"BSTAR":0,"MEAN_MOTION_DOT":-7.0e-7,"MEAN_MOTION_DDOT":0},{"OBJECT_NAME":"GSAT0202 (GALILEO 6)","OBJECT_ID":"2014-050B","EPOCH":"2026-06-26T07:06:31.788000","MEAN_MOTION":1.85520779,"ECCENTRICITY":0.16771,"INCLINATION":48.882,"RA_OF_ASC_NODE":272.1482,"ARG_OF_PERICENTER":180.4759,"MEAN_ANOMALY":179.3977,"EPHEMERIS_TYPE":0,"CLASSIFICATION_TYPE":"U","NORAD_CAT_ID":40129,"ELEMENT_SET_NO":999,"REV_AT_EPOCH":8065,"BSTAR":0,"MEAN_MOTION_DOT":-6.5e-7,"MEAN_MOTION_DDOT":0},{"OBJECT_NAME":"IRNSS-1C","OBJECT_ID":"2014-061A","EPOCH":"2026-06-25T16:24:56.461248","MEAN_MOTION":1.00267985,"ECCENTRICITY":0.0022592,"INCLINATION":6.5386,"RA_OF_ASC_NODE":88.77,"ARG_OF_PERICENTER":3.4967,"MEAN_ANOMALY":150.6688,"EPHEMERIS_TYPE":0,"CLASSIFICATION_TYPE":"U","NORAD_CAT_ID":40269,"ELEMENT_SET_NO":999,"REV_AT_EPOCH":4277,"BSTAR":0,"MEAN_MOTION_DOT":-1.55e-6,"MEAN_MOTION_DDOT":0},{"OBJECT_NAME":"GPS BIIF-8  (PRN 03)","OBJECT_ID":"2014-068A","EPOCH":"2026-06-25T21:32:14.332704","MEAN_MOTION":2.00576883,"ECCENTRICITY":0.0067228,"INCLINATION":56.9936,"RA_OF_ASC_NODE":30.6191,"ARG_OF_PERICENTER":70.9208,"MEAN_ANOMALY":289.8621,"EPHEMERIS_TYPE":0,"CLASSIFICATION_TYPE":"U","NORAD_CAT_ID":40294,"ELEMENT_SET_NO":999,"REV_AT_EPOCH":8538,"BSTAR":0,"MEAN_MOTION_DOT":-8.5e-7,"MEAN_MOTION_DDOT":0},{"OBJECT_NAME":"COSMOS 2501 (702K)","OBJECT_ID":"2014-075A","EPOCH":"2026-06-26T05:11:57.010848","MEAN_MOTION":2.13109644,"ECCENTRICITY":0.00222379,"INCLINATION":63.6151,"RA_OF_ASC_NODE":190.0588,"ARG_OF_PERICENTER":210.4369,"MEAN_ANOMALY":149.4832,"EPHEMERIS_TYPE":0,"CLASSIFICATION_TYPE":"U","NORAD_CAT_ID":40315,"ELEMENT_SET_NO":999,"REV_AT_EPOCH":9004,"BSTAR":0,"MEAN_MOTION_DOT":1.05e-6,"MEAN_MOTION_DDOT":0},{"OBJECT_NAME":"GPS BIIF-9  (PRN 26)","OBJECT_ID":"2015-013A","EPOCH":"2026-06-26T00:53:47.328576","MEAN_MOTION":2.0055098,"ECCENTRICITY":0.01097479,"INCLINATION":53.1674,"RA_OF_ASC_NODE":203.8114,"ARG_OF_PERICENTER":40.1916,"MEAN_ANOMALY":320.684,"EPHEMERIS_TYPE":0,"CLASSIFICATION_TYPE":"U","NORAD_CAT_ID":40534,"ELEMENT_SET_NO":999,"REV_AT_EPOCH":8200,"BSTAR":0,"MEAN_MOTION_DOT":8.7e-7,"MEAN_MOTION_DDOT":0},{"OBJECT_NAME":"GSAT0203 (GALILEO 7)","OBJECT_ID":"2015-017A","EPOCH":"2026-06-26T14:21:18.819072","MEAN_MOTION":1.70476365,"ECCENTRICITY":0.0002131,"INCLINATION":56.7831,"RA_OF_ASC_NODE":341.3391,"ARG_OF_PERICENTER":269.4919,"MEAN_ANOMALY":90.4779,"EPHEMERIS_TYPE":0,"CLASSIFICATION_TYPE":"U","NORAD_CAT_ID":40544,"ELEMENT_SET_NO":999,"REV_AT_EPOCH":6936,"BSTAR":0,"MEAN_MOTION_DOT":-9.6e-7,"MEAN_MOTION_DDOT":0},{"OBJECT_NAME":"GSAT0204 (GALILEO 8)","OBJECT_ID":"2015-017B","EPOCH":"2026-06-23T22:06:17.261568","MEAN_MOTION":1.7047587,"ECCENTRICITY":0.00020932,"INCLINATION":56.7909,"RA_OF_ASC_NODE":341.4306,"ARG_OF_PERICENTER":241.0442,"MEAN_ANOMALY":118.9316,"EPHEMERIS_TYPE":0,"CLASSIFICATION_TYPE":"U","NORAD_CAT_ID":40545,"ELEMENT_SET_NO":999,"REV_AT_EPOCH":3236,"BSTAR":0,"MEAN_MOTION_DOT":-9.9e-7,"MEAN_MOTION_DDOT":0},{"OBJECT_NAME":"BEIDOU-3S IGSO-1S (C31)","OBJECT_ID":"2015-019A","EPOCH":"2026-06-25T19:36:21.900096","MEAN_MOTION":1.00249619,"ECCENTRICITY":0.00390379,"INCLINATION":49.1775,"RA_OF_ASC_NODE":295.3568,"ARG_OF_PERICENTER":191.6631,"MEAN_ANOMALY":171.662,"EPHEMERIS_TYPE":0,"CLASSIFICATION_TYPE":"U","NORAD_CAT_ID":40549,"ELEMENT_SET_NO":999,"REV_AT_EPOCH":4116,"BSTAR":0,"MEAN_MOTION_DOT":-1.74e-6,"MEAN_MOTION_DDOT":0},{"OBJECT_NAME":"GPS BIIF-10 (PRN 08)","OBJECT_ID":"2015-033A","EPOCH":"2026-06-26T04:41:55.246848","MEAN_MOTION":2.00555927,"ECCENTRICITY":0.01151546,"INCLINATION":53.9753,"RA_OF_ASC_NODE":266.7149,"ARG_OF_PERICENTER":30.2445,"MEAN_ANOMALY":330.4598,"EPHEMERIS_TYPE":0,"CLASSIFICATION_TYPE":"U","NORAD_CAT_ID":40730,"ELEMENT_SET_NO":999,"REV_AT_EPOCH":8017,"BSTAR":0,"MEAN_MOTION_DOT":-3.6e-7,"MEAN_MOTION_DDOT":0},{"OBJECT_NAME":"BEIDOU-3S M2S (C58)","OBJECT_ID":"2015-037A","EPOCH":"2026-06-23T05:30:54.874656","MEAN_MOTION":1.86231957,"ECCENTRICITY":0.00085699,"INCLINATION":54.8652,"RA_OF_ASC_NODE":301.8377,"ARG_OF_PERICENTER":258.4474,"MEAN_ANOMALY":101.4494,"EPHEMERIS_TYPE":0,"CLASSIFICATION_TYPE":"U","NORAD_CAT_ID":40748,"ELEMENT_SET_NO":999,"REV_AT_EPOCH":7423,"BSTAR":0,"MEAN_MOTION_DOT":-1.08e-6,"MEAN_MOTION_DDOT":0},{"OBJECT_NAME":"BEIDOU-3S M1S (C57)","OBJECT_ID":"2015-037B","EPOCH":"2026-06-24T12:14:42.859392","MEAN_MOTION":1.86254971,"ECCENTRICITY":0.00032834,"INCLINATION":54.8605,"RA_OF_ASC_NODE":301.7817,"ARG_OF_PERICENTER":62.2648,"MEAN_ANOMALY":297.7606,"EPHEMERIS_TYPE":0,"CLASSIFICATION_TYPE":"U","NORAD_CAT_ID":40749,"ELEMENT_SET_NO":999,"REV_AT_EPOCH":7426,"BSTAR":0,"MEAN_MOTION_DOT":-1.09e-6,"MEAN_MOTION_DDOT":0},{"OBJECT_NAME":"GSAT0206 (GALILEO 10)","OBJECT_ID":"2015-045B","EPOCH":"2026-06-24T11:54:39.024000","MEAN_MOTION":1.70473861,"ECCENTRICITY":0.00016854,"INCLINATION":54.9433,"RA_OF_ASC_NODE":221.4024,"ARG_OF_PERICENTER":336.0482,"MEAN_ANOMALY":24.0274,"EPHEMERIS_TYPE":0,"CLASSIFICATION_TYPE":"U","NORAD_CAT_ID":40890,"ELEMENT_SET_NO":999,"REV_AT_EPOCH":6716,"BSTAR":0,"MEAN_MOTION_DOT":5.1e-7,"MEAN_MOTION_DDOT":0},{"OBJECT_NAME":"BEIDOU-3S IGSO-2S (C56)","OBJECT_ID":"2015-053A","EPOCH":"2026-06-26T16:25:46.581888","MEAN_MOTION":1.00257789,"ECCENTRICITY":0.0065523,"INCLINATION":49.2053,"RA_OF_ASC_NODE":258.6677,"ARG_OF_PERICENTER":192.9538,"MEAN_ANOMALY":164.2588,"EPHEMERIS_TYPE":0,"CLASSIFICATION_TYPE":"U","NORAD_CAT_ID":40938,"ELEMENT_SET_NO":999,"REV_AT_EPOCH":3944,"BSTAR":0,"MEAN_MOTION_DOT":-1.16e-6,"MEAN_MOTION_DDOT":0}]
